NORAD_CAT_ID,OBJECT_NAME,OBJECT_TYPE,EPOCH,MEAN_MOTION,ECCENTRICITY,INCLINATION,RA_OF_ASC_NODE,ARG_OF_PERICENTER,MEAN_ANOMALY,BSTAR,MEAN_MOTION_DOT,MEAN_MOTION_DDOT,TLE_LINE0,TLE_LINE1,TLE_LINE2,SEMIMAJOR_AXIS,PERIOD,APOGEE,PERIGEE,DECAYED
56792.0,STARLINK-6046,PAYLOAD,2023-10-01 14:00:01,15.19670099,0.0003382,70.0006,69.3786,275.4005,116.6926,-0.048427,-0.00956924,0.0,0 STARLINK-6046,1 56792U 23078AB  23274.58334491 -.00956924  00000-0 -48427-1 0  9997,2 56792  70.0006  69.3786 0003382 275.4005 116.6926 15.19670099  5960,6884.974,94.757,509.167,504.51,0.0
56792.0,STARLINK-6046,PAYLOAD,2023-10-01 22:00:00,15.18988147,0.0003426,70.0003,68.5103,280.9656,133.7882,-0.04656,-0.00905833,0.0,0 STARLINK-6046,1 56792U 23078AB  23274.91667824 -.00905833  00000-0 -46560-1 0  9992,2 56792  70.0003  68.5103 0003426 280.9656 133.7882 15.18988147  6027,6887.034,94.8,511.259,506.54,0.0
56792.0,STARLINK-6046,PAYLOAD,2023-10-02 22:00:00,15.17030264,0.0003349,70.0006,65.9109,282.2022,195.8109,-0.049211,-0.00904854,0.0,0 STARLINK-6046,1 56792U 23078AB  23275.91667824 -.00904854  00000-0 -49211-1 0  9991,2 56792  70.0006  65.9109 0003349 282.2022 195.8109 15.17030264 19799,6892.959,94.922,517.132,512.515,0.0
56792.0,STARLINK-6046,PAYLOAD,2023-10-03 12:00:00,15.15919557,0.0003347,70.0012,64.3984,276.005,145.6446,-0.053497,-0.00949318,0.0,0 STARLINK-6046,1 56792U 23078AB  23276.50001157 -.00949318  00000-0 -53497-1 0  9993,2 56792  70.0012  64.3984 0003347 276.0050 145.6446 15.15919557 19886,6896.325,94.992,520.498,515.882,0.0
56792.0,STARLINK-6046,PAYLOAD,2023-10-03 14:00:01,15.15751873,0.0003212,70.0012,64.1825,276.9042,239.363,-0.053898,-0.00951654,0.0,0 STARLINK-6046,1 56792U 23078AB  23276.58334491 -.00951654  00000-0 -53898-1 0  9992,2 56792  70.0012  64.1825 0003212 276.9042 239.3630 15.15751873  5874,6896.834,95.002,520.914,516.484,0.0
56792.0,STARLINK-6046,PAYLOAD,2023-10-03 22:00:00,15.15076484,0.0003253,70.0009,63.3195,281.6675,252.5636,-0.052416,-0.00910999,0.0,0 STARLINK-6046,1 56792U 23078AB  23276.91667824 -.00910999  00000-0 -52416-1 0  9990,2 56792  70.0009  63.3195 0003253 281.6675 252.5636 15.15076484  5928,6898.883,95.045,522.993,518.504,0.0
56792.0,STARLINK-6046,PAYLOAD,2023-10-04 14:00:01,15.13791729,0.0003196,70.0013,61.5962,276.3306,291.4629,-0.056655,-0.0094664,0.0,0 STARLINK-6046,1 56792U 23078AB  23277.58334491 -.00946640  00000-0 -56655-1 0  9996,2 56792  70.0013  61.5962 0003196 276.3306 291.4629 15.13791729  6023,6902.786,95.125,526.857,522.445,0.0
56792.0,STARLINK-6046,PAYLOAD,2023-10-04 20:00:01,15.13267387,0.0003322,70.0011,60.9507,282.4826,207.1031,-0.05356,-0.00886349,0.0,0 STARLINK-6046,1 56792U 23078AB  23277.83334491 -.00886349  00000-0 -53560-1 0  9995,2 56792  70.0011  60.9507 0003322 282.4826 207.1031 15.13267387 20086,6904.381,95.158,528.539,523.952,0.0
56792.0,STARLINK-6046,PAYLOAD,2023-10-04 22:00:01,15.13123567,0.0003256,70.0009,60.7357,280.6977,302.7733,-0.055879,-0.00918478,0.0,0 STARLINK-6046,1 56792U 23078AB  23277.91668981 -.00918478  00000-0 -55879-1 0  9992,2 56792  70.0009  60.7357 0003256 280.6977 302.7733 15.13123567  6027,6904.818,95.167,528.931,524.435,0.0
56792.0,STARLINK-6046,PAYLOAD,2023-10-05 12:00:00,15.1200528,0.0003168,70.0013,59.2322,276.863,241.9703,-0.059961,-0.00952404,0.0,0 STARLINK-6046,1 56792U 23078AB  23278.50001157 -.00952404  00000-0 -59961-1 0  9997,2 56792  70.0013  59.2322 0003168 276.8630 241.9703 15.12005280 20197,6908.222,95.238,532.276,527.899,0.0
56792.0,STARLINK-6046,PAYLOAD,2023-10-05 14:00:01,15.11830574,0.0003223,70.0013,59.0176,276.1494,336.1293,-0.059436,-0.0094044,0.0,0 STARLINK-6046,1 56792U 23078AB  23278.58334491 -.00940440  00000-0 -59436-1 0  9999,2 56792  70.0013  59.0176 0003223 276.1494 336.1293 15.11830574  6135,6908.754,95.249,532.846,528.393,0.0
56792.0,STARLINK-6046,PAYLOAD,2023-10-05 22:00:00,15.11171127,0.0003302,70.0008,58.1597,280.4556,345.0885,-0.059578,-0.00926633,0.0,0 STARLINK-6046,1 56792U 23078AB  23278.91667824 -.00926633  00000-0 -59578-1 0  9990,2 56792  70.0008  58.1597 0003302 280.4556 345.0885 15.11171127  5521,6910.764,95.29,534.911,530.347,0.0
56792.0,STARLINK-6046,PAYLOAD,2023-10-06 04:00:00,15.10656041,0.0003141,70.0011,57.5169,277.5316,267.4553,-0.057933,-0.00890931,0.0,0 STARLINK-6046,1 56792U 23078AB  23279.16667824 -.00890931  00000-0 -57933-1 0  9992,2 56792  70.0011  57.5169 0003141 277.5316 267.4553 15.10656041 20297,6912.335,95.323,536.371,532.029,0.0
56792.0,STARLINK-6046,PAYLOAD,2023-10-06 14:00:01,15.09872425,0.000329,70.0012,56.4468,276.9466,12.8403,-0.062588,-0.00938116,0.0,0 STARLINK-6046,1 56792U 23078AB  23279.58335648 -.00938116  00000-0 -62588-1 0  9994,2 56792  70.0012  56.4468 0003290 276.9466  12.8403 15.09872425  5622,6914.726,95.372,538.866,534.317,0.0
56792.0,STARLINK-6046,PAYLOAD,2023-10-06 20:00:01,15.09357154,0.0003231,70.0011,55.8053,281.7426,286.25,-0.059981,-0.0089,0.0,0 STARLINK-6046,1 56792U 23078AB  23279.83334491 -.00890000  00000-0 -59981-1 0  9999,2 56792  70.0011  55.8053 0003231 281.7426 286.2500 15.09357154 20392,6916.3,95.405,540.4,535.93,0.0
56792.0,STARLINK-6046,PAYLOAD,2023-10-06 22:00:01,15.09219812,0.000333,70.0008,55.5915,280.5069,20.1962,-0.063578,-0.00936131,0.0,0 STARLINK-6046,1 56792U 23078AB  23279.91668981 -.00936131  00000-0 -63578-1 0  9995,2 56792  70.0008  55.5915 0003330 280.5069  20.1962 15.09219812  5682,6916.72,95.414,540.888,536.281,0.0
56792.0,STARLINK-6046,PAYLOAD,2023-10-07 12:00:00,15.08091948,0.0003145,70.0013,54.0971,272.7989,315.0557,-0.066937,-0.00954049,0.0,0 STARLINK-6046,1 56792U 23078AB  23280.50001157 -.00954049  00000-0 -66937-1 0  9998,2 56792  70.0013  54.0971 0003145 272.7989 315.0557 15.08091948 20491,6920.168,95.485,544.209,539.856,0.0
56792.0,STARLINK-6046,PAYLOAD,2023-10-07 14:00:01,15.07914418,0.0003274,70.0012,53.8839,273.8981,46.229,-0.065878,-0.00935892,0.0,0 STARLINK-6046,1 56792U 23078AB  23280.58334491 -.00935892  00000-0 -65878-1 0  9994,2 56792  70.0012  53.8839 0003274 273.8981  46.2290 15.07914418  5784,6920.711,95.496,544.842,540.31,0.0
56792.0,STARLINK-6046,PAYLOAD,2023-10-07 22:00:00,15.07265536,0.000332,70.0008,53.0311,277.3286,51.3665,-0.067476,-0.00941339,0.0,0 STARLINK-6046,1 56792U 23078AB  23280.91667824 -.00941339  00000-0 -67476-1 0  9999,2 56792  70.0008  53.0311 0003320 277.3286  51.3665 15.07265536  5834,6922.697,95.537,546.86,542.264,0.0
56792.0,STARLINK-6046,PAYLOAD,2023-10-08 04:00:00,15.06735781,0.0003146,70.0012,52.3922,272.092,332.5302,-0.063511,-0.00878082,0.0,0 STARLINK-6046,1 56792U 23078AB  23281.16667824 -.00878082  00000-0 -63511-1 0  9997,2 56792  70.0012  52.3922 0003146 272.0920 332.5302 15.06735781 20597,6924.32,95.571,548.363,544.006,0.0
56792.0,STARLINK-6046,PAYLOAD,2023-10-08 14:00:01,15.05953399,0.0003323,70.0012,51.3287,274.7493,68.7427,-0.06903,-0.00930212,0.0,0 STARLINK-6046,1 56792U 23078AB  23281.58334491 -.00930212  00000-0 -69030-1 0  9990,2 56792  70.0012  51.3287 0003323 274.7493  68.7427 15.05953399  5945,6926.718,95.62,550.884,546.281,0.0
56792.0,STARLINK-6046,PAYLOAD,2023-10-08 20:00:01,15.05449945,0.0003249,70.001,50.691,277.7057,340.5289,-0.067483,-0.0089945,0.0,0 STARLINK-6046,1 56792U 23078AB  23281.83334491 -.00899450  00000-0 -67483-1 0  9996,2 56792  70.0010  50.6910 0003249 277.7057 340.5289 15.05449945 20697,6928.262,95.652,552.378,547.876,0.0
56792.0,STARLINK-6046,PAYLOAD,2023-10-08 22:00:00,15.0531174,0.0003326,70.0009,50.4786,278.5597,71.1502,-0.071574,-0.00946584,0.0,0 STARLINK-6046,1 56792U 23078AB  23281.91667824 -.00946584  00000-0 -71574-1 0  9991,2 56792  70.0009  50.4786 0003326 278.5597  71.1502 15.05311740  5990,6928.686,95.661,552.855,548.246,0.0
56792.0,STARLINK-6046,PAYLOAD,2023-10-09 12:00:00,15.04175447,0.0003208,70.0014,48.9932,273.6033,355.1111,-0.074297,-0.00963565,0.0,0 STARLINK-6046,1 56792U 23078AB  23282.50001157 -.00963565  00000-0 -74297-1 0  9991,2 56792  70.0014  48.9932 0003208 273.6033 355.1111 15.04175447 20798,6932.175,95.734,556.264,551.816,0.0
56792.0,STARLINK-6046,PAYLOAD,2023-10-09 14:00:01,15.03994335,0.0003302,70.0013,48.7812,276.3581,83.4568,-0.072508,-0.00927135,0.0,0 STARLINK-6046,1 56792U 23078AB  23282.58334491 -.00927135  00000-0 -72508-1 0  9995,2 56792  70.0013  48.7812 0003302 276.3581  83.4568 15.03994335  5924,6932.731,95.745,556.886,552.307,0.0
56792.0,STARLINK-6046,PAYLOAD,2023-10-09 22:00:00,15.03357916,0.0003299,70.001,47.9338,279.7824,83.9028,-0.075873,-0.00962804,0.0,0 STARLINK-6046,1 56792U 23078AB  23282.91667824 -.00962804  00000-0 -75873-1 0  9991,2 56792  70.0010  47.9338 0003299 279.7824  83.9028 15.03357916  5976,6934.688,95.786,558.841,554.265,0.0
56792.0,STARLINK-6046,PAYLOAD,2023-10-10 06:00:02,15.02655095,0.0003279,70.0012,47.0872,273.8937,92.9596,-0.069427,-0.00861455,0.0,0 STARLINK-6046,1 56792U 23078AB  23283.25002315 -.00861455  00000-0 -69427-1 0  9995,2 56792  70.0012  47.0872 0003279 273.8937  92.9596 15.02655095 20908,6936.85,95.83,560.99,556.44,0.0
56792.0,STARLINK-6046,PAYLOAD,2023-10-10 14:00:01,15.02036641,0.0003358,70.0014,46.2414,277.9404,91.1561,-0.076266,-0.00925739,0.0,0 STARLINK-6046,1 56792U 23078AB  23283.58334491 -.00925739  00000-0 -76266-1 0  9999,2 56792  70.0014  46.2414 0003358 277.9404  91.1561 15.02036641  5989,6938.754,95.87,562.949,558.289,0.0
56792.0,STARLINK-6046,PAYLOAD,2023-10-10 22:00:01,15.01402079,0.000335,70.0011,45.3965,280.9086,89.7722,-0.080123,-0.00965143,0.0,0 STARLINK-6046,1 56792U 23078AB  23283.91668981 -.00965143  00000-0 -80123-1 0  9990,2 56792  70.0011  45.3965 0003350 280.9086  89.7722 15.01402079 21003,6940.709,95.91,564.899,560.249,0.0
56792.0,STARLINK-6046,PAYLOAD,2023-10-11 14:00:01,15.00049688,0.0003252,70.0017,43.7093,279.5691,91.7754,-0.073804,-0.00855316,0.0,0 STARLINK-6046,1 56792U 23078AB  23284.58334491 -.00855316  00000-0 -73804-1 0  9998,2 56792  70.0017  43.7093 0003252 279.5691  91.7754 15.00049688 21101,6944.88,95.997,569.003,564.487,0.0
